{"fetched_at":"2026-03-29T16:36:15Z","count":15609,"tles":[{"name":"STARLINK-11582 [DTC]","line1":"1 62985U 25031E   26087.71107763  .00212025  00000+0  16074-2 0  9997","line2":"2 62985  42.9993 246.8346 0003464 261.0049  99.0426 15.70934777 65731","category":"Starlink"}]}