{
  "norad_id": 62985,
  "name": "STARLINK-11582 [DTC]",
  "history": [
    {
      "epoch": "2026-03-28T17:03:57.107232Z",
      "apogee_km": 358.5569674986218,
      "perigee_km": 353.891402069803,
      "latitude_deg": -4.208586704240955e-05,
      "longitude_deg": 164.71900237421568,
      "height_km": 356.3626291056979,
      "semi_major_axis_km": 6734.361184784212,
      "eccentricity": 0.0003464,
      "inclination_deg": 42.9993,
      "raan_deg": 246.8346,
      "arg_perigee_deg": 261.0049,
      "mean_anomaly_deg": 99.0426,
      "mean_motion_rev_day": 15.70934777
    }
  ]
}